NORAD_CAT_ID,OBJECT_NAME,OBJECT_TYPE,EPOCH,MEAN_MOTION,ECCENTRICITY,INCLINATION,RA_OF_ASC_NODE,ARG_OF_PERICENTER,MEAN_ANOMALY,BSTAR,MEAN_MOTION_DOT,MEAN_MOTION_DDOT,TLE_LINE0,TLE_LINE1,TLE_LINE2,SEMIMAJOR_AXIS,PERIOD,APOGEE,PERIGEE,DECAYED
52660.0,STARLINK-4081,PAYLOAD,2024-07-13 13:52:29,15.08787733,0.0001286,53.2178,346.0788,87.1195,272.9944,0.00077956,0.00012123,0.0,0 STARLINK-4081,1 52660U 22053E   24195.57811350  .00012123  00000-0  77956-3 0  9998,2 52660  53.2178 346.0788 0001286  87.1195 272.9944 15.08787733119918,6918.04,95.441,540.795,539.015,0.0
52660.0,STARLINK-4081,PAYLOAD,2024-07-13 17:03:14,15.08836185,9.57e-05,53.2188,345.4896,84.4402,275.6699,9.3109e-05,1.194e-05,0.0,0 STARLINK-4081,1 52660U 22053E   24195.71058032  .00001194  00000-0  93109-4 0  9999,2 52660  53.2188 345.4896 0000957  84.4402 275.6699 15.08836185119932,6917.892,95.438,540.419,539.095,0.0
52660.0,STARLINK-4081,PAYLOAD,2024-07-14 10:32:28,15.08837952,0.0001074,53.2189,342.2164,88.2747,271.8369,0.00014379,2.001e-05,0.0,0 STARLINK-4081,1 52660U 22053E   24196.43921907  .00002001  00000-0  14379-3 0  9998,2 52660  53.2189 342.2164 0001074  88.2747 271.8369 15.08837952120040,6917.887,95.438,540.495,539.009,0.0
52660.0,STARLINK-4081,PAYLOAD,2024-07-14 13:43:14,15.08838068,8.96e-05,53.2189,341.6219,82.4839,277.6254,0.00014738,2.058e-05,0.0,0 STARLINK-4081,1 52660U 22053E   24196.57169906  .00002058  00000-0  14738-3 0  9997,2 52660  53.2189 341.6219 0000896  82.4839 277.6254 15.08838068120061,6917.886,95.438,540.371,539.131,0.0
52660.0,STARLINK-4081,PAYLOAD,2024-07-14 16:54:01,15.08839931,9.75e-05,53.2184,341.0282,80.3047,279.8055,0.0001614,2.282e-05,0.0,0 STARLINK-4081,1 52660U 22053E   24196.70417837  .00002282  00000-0  16140-3 0  9999,2 52660  53.2184 341.0282 0000975  80.3047 279.8055 15.08839931120081,6917.881,95.438,540.42,539.071,0.0
52660.0,STARLINK-4081,PAYLOAD,2024-07-15 02:26:18,15.08857107,0.0001049,53.2189,339.243,72.9885,287.1222,0.00025087,3.709e-05,0.0,0 STARLINK-4081,1 52660U 22053E   24197.10160343  .00003709  00000-0  25087-3 0  9996,2 52660  53.2189 339.2430 0001049  72.9885 287.1222 15.08857107120140,6917.828,95.436,540.419,538.967,0.0
52660.0,STARLINK-4081,PAYLOAD,2024-07-15 13:34:02,15.08825855,0.0001097,53.2193,337.1625,86.2246,273.8871,-1.4049e-05,-5.11e-06,0.0,0 STARLINK-4081,1 52660U 22053E   24197.56531220 -.00000511  00000-0 -14049-4 0  9999,2 52660  53.2193 337.1625 0001097  86.2246 273.8871 15.08825855120215,6917.924,95.438,540.548,539.03,0.0
52660.0,STARLINK-4081,PAYLOAD,2024-07-15 19:55:34,15.08838858,0.0001168,53.218,335.9728,97.1474,262.9651,3.6579e-05,2.94e-06,0.0,0 STARLINK-4081,1 52660U 22053E   24197.83025891  .00000294  00000-0  36579-4 0  9999,2 52660  53.2180 335.9728 0001168  97.1474 262.9651 15.08838858120250,6917.884,95.438,540.557,538.941,0.0
52660.0,STARLINK-4081,PAYLOAD,2024-07-16 13:24:48,15.0883976,0.0001207,53.2181,332.7022,105.5736,254.5389,2.6883e-05,1.4e-06,0.0,0 STARLINK-4081,1 52660U 22053E   24198.55889998  .00000140  00000-0  26883-4 0  9992,2 52660  53.2181 332.7022 0001207 105.5736 254.5389 15.08839760120362,6917.881,95.438,540.581,538.911,0.0
52660.0,STARLINK-4081,PAYLOAD,2024-07-16 16:35:35,15.08844907,0.0001258,53.2179,332.1064,75.2412,284.872,0.00013309,1.831e-05,0.0,0 STARLINK-4081,1 52660U 22053E   24198.69137858  .00001831  00000-0  13309-3 0  9994,2 52660  53.2179 332.1064 0001258  75.2412 284.8720 15.08844907120385,6917.865,95.437,540.601,538.86,0.0
52660.0,STARLINK-4081,PAYLOAD,2024-07-17 08:29:26,15.08838527,0.0001474,53.2178,329.1385,81.2984,278.8175,0.00025125,3.713e-05,0.0,0 STARLINK-4081,1 52660U 22053E   24199.35378253  .00003713  00000-0  25125-3 0  9994,2 52660  53.2178 329.1385 0001474  81.2984 278.8175 15.08838527120486,6917.885,95.438,540.77,538.73,0.0
52660.0,STARLINK-4081,PAYLOAD,2024-07-17 14:50:59,15.08836573,0.0001451,53.2187,327.9428,106.0604,254.0548,0.00021974,3.211e-05,0.0,0 STARLINK-4081,1 52660U 22053E   24199.61874396  .00003211  00000-0  21974-3 0  9993,2 52660  53.2187 327.9428 0001451 106.0604 254.0548 15.08836573120524,6917.891,95.438,540.76,538.752,0.0
52660.0,STARLINK-4081,PAYLOAD,2024-07-18 13:06:23,15.0883943,0.0001194,53.2178,323.7803,110.4774,249.6346,5.5524e-05,5.96e-06,0.0,0 STARLINK-4081,1 52660U 22053E   24200.54610497  .00000596  00000-0  55524-4 0  9990,2 52660  53.2178 323.7803 0001194 110.4774 249.6346 15.08839430120662,6917.882,95.438,540.573,538.921,0.0
52660.0,STARLINK-4081,PAYLOAD,2024-07-18 14:41:46,15.08834013,0.0001029,53.2168,323.4857,67.9635,292.1466,3.4698e-06,-2.33e-06,0.0,0 STARLINK-4081,1 52660U 22053E   24200.61234827 -.00000233  00000-0  34698-5 0  9996,2 52660  53.2168 323.4857 0001029  67.9635 292.1466 15.08834013120675,6917.899,95.438,540.476,539.052,0.0
52660.0,STARLINK-4081,PAYLOAD,2024-07-19 12:57:10,15.08838302,0.0001246,53.2183,319.3197,108.5962,251.5165,0.00010806,1.432e-05,0.0,0 STARLINK-4081,1 52660U 22053E   24201.53970516  .00001432  00000-0  10806-3 0  9994,2 52660  53.2183 319.3197 0001246 108.5962 251.5165 15.08838302120815,6917.886,95.438,540.613,538.889,0.0
52660.0,STARLINK-4081,PAYLOAD,2024-07-19 14:32:33,15.08842027,0.0001371,53.2196,319.0221,106.6905,253.4237,9.4507e-05,1.217e-05,0.0,0 STARLINK-4081,1 52660U 22053E   24201.60594346  .00001217  00000-0  94507-4 0  9997,2 52660  53.2196 319.0221 0001371 106.6905 253.4237 15.08842027120820,6917.874,95.437,540.688,538.791,0.0
52660.0,STARLINK-4081,PAYLOAD,2024-07-20 14:23:20,15.08840036,0.0001319,53.2193,314.5605,100.8691,259.245,6.3808e-05,7.28e-06,0.0,0 STARLINK-4081,1 52660U 22053E   24202.59954643  .00000728  00000-0  63808-4 0  9992,2 52660  53.2193 314.5605 0001319 100.8691 259.2450 15.08840036120978,6917.88,95.438,540.658,538.833,0.0
52660.0,STARLINK-4081,PAYLOAD,2024-07-20 23:55:36,15.08881443,0.0001177,53.2189,312.7748,75.8673,284.245,0.00040073,6.103e-05,0.0,0 STARLINK-4081,1 52660U 22053E   24202.99694533  .00006103  00000-0  40073-3 0  9996,2 52660  53.2189 312.7748 0001177  75.8673 284.2450 15.08881443121037,6917.754,95.435,540.433,538.804,0.0
52660.0,STARLINK-4081,PAYLOAD,2024-07-21 12:38:46,15.08819776,0.0001734,53.2199,310.4041,101.7174,258.4013,-0.00012874,-2.335e-05,0.0,0 STARLINK-4081,1 52660U 22053E   24203.52692259 -.00002335  00000-0 -12874-3 0  9992,2 52660  53.2199 310.4041 0001734 101.7174 258.4013 15.08819776121110,6917.942,95.439,541.007,538.608,0.0
52660.0,STARLINK-4081,PAYLOAD,2024-07-21 14:14:09,15.08821866,0.0001699,53.2197,310.1072,101.9833,258.135,-0.00012484,-2.273e-05,0.0,0 STARLINK-4081,1 52660U 22053E   24203.59316152 -.00002273  00000-0 -12484-3 0  9992,2 52660  53.2197 310.1072 0001699 101.9833 258.1350 15.08821866121128,6917.936,95.439,540.976,538.625,0.0
52660.0,STARLINK-4081,PAYLOAD,2024-07-22 17:15:41,15.08845446,0.0001705,53.2198,305.0516,104.1063,256.0118,0.00011292,1.51e-05,0.0,0 STARLINK-4081,1 52660U 22053E   24204.71922473  .00001510  00000-0  11292-3 0  9993,2 52660  53.2198 305.0516 0001705 104.1063 256.0118 15.08845446121290,6917.864,95.437,540.908,538.549,0.0
52660.0,STARLINK-4081,PAYLOAD,2024-07-24 10:35:43,15.08838666,0.0001773,53.2194,297.3169,108.08,252.0385,3.315e-05,2.4e-06,0.0,0 STARLINK-4081,1 52660U 22053E   24206.44147396  .00000240  00000-0  33150-4 0  9995,2 52660  53.2194 297.3169 0001773 108.0800 252.0385 15.08838666121557,6917.884,95.438,540.976,538.523,0.0
52660.0,STARLINK-4081,PAYLOAD,2024-07-25 05:40:20,15.08845266,0.0001796,53.2192,293.7493,107.1616,252.9573,9.6365e-05,1.246e-05,0.0,0 STARLINK-4081,1 52660U 22053E   24207.23635035  .00001246  00000-0  96365-4 0  9999,2 52660  53.2192 293.7493 0001796 107.1616 252.9573 15.08845266121670,6917.864,95.437,540.972,538.487,0.0
52660.0,STARLINK-4081,PAYLOAD,2024-07-25 10:26:30,15.08843108,0.0001892,53.2181,292.8568,108.1948,251.925,0.00014619,2.039e-05,0.0,0 STARLINK-4081,1 52660U 22053E   24207.43507471  .00002039  00000-0  14619-3 0  9995,2 52660  53.2181 292.8568 0001892 108.1948 251.9250 15.08843108121705,6917.871,95.437,541.045,538.427,0.0
52660.0,STARLINK-4081,PAYLOAD,2024-07-26 10:17:17,15.08823259,0.0001904,53.2175,288.3932,109.0501,251.0697,0.00048924,7.503e-05,0.0,0 STARLINK-4081,1 52660U 22053E   24208.42867327  .00007503  00000-0  48924-3 0  9991,2 52660  53.2175 288.3932 0001904 109.0501 251.0697 15.08823259121859,6917.932,95.439,541.114,538.479,0.0
52660.0,STARLINK-4081,PAYLOAD,2024-07-26 13:28:03,15.08847985,0.0001486,53.2175,287.7983,106.9182,253.1973,8.2868e-05,1.031e-05,0.0,0 STARLINK-4081,1 52660U 22053E   24208.56114750  .00001031  00000-0  82868-4 0  9997,2 52660  53.2175 287.7983 0001486 106.9182 253.1973 15.08847985121878,6917.856,95.437,540.749,538.693,0.0
52660.0,STARLINK-4081,PAYLOAD,2024-07-26 15:03:26,15.0884757,0.0001599,53.2169,287.5001,114.6388,245.477,9.4383e-05,1.215e-05,0.0,0 STARLINK-4081,1 52660U 22053E   24208.62738645  .00001215  00000-0  94383-4 0  9998,2 52660  53.2169 287.5001 0001599 114.6388 245.4770 15.08847570121889,6917.857,95.437,540.828,538.616,0.0
52660.0,STARLINK-4081,PAYLOAD,2024-07-27 10:08:05,15.08818922,0.0001127,53.2142,283.9316,64.9332,295.1777,-0.00011897,-2.18e-05,0.0,0 STARLINK-4081,1 52660U 22053E   24209.42229129 -.00002180  00000-0 -11897-3 0  9991,2 52660  53.2142 283.9316 0001127  64.9332 295.1777 15.08818922122005,6917.945,95.439,540.589,539.03,0.0
52660.0,STARLINK-4081,PAYLOAD,2024-07-27 14:54:16,15.08813321,0.0001461,53.2177,283.0421,105.3171,254.7983,-0.00022629,-3.885e-05,0.0,0 STARLINK-4081,1 52660U 22053E   24209.62101895 -.00003885  00000-0 -22629-3 0  9990,2 52660  53.2177 283.0421 0001461 105.3171 254.7983 15.08813321122034,6917.962,95.439,540.838,538.816,0.0
52660.0,STARLINK-4081,PAYLOAD,2024-07-28 11:34:15,15.08832381,0.0001264,53.2173,279.1764,93.3202,266.7934,4.3777e-05,4.09e-06,0.0,0 STARLINK-4081,1 52660U 22053E   24210.48212553  .00000409  00000-0  43777-4 0  9995,2 52660  53.2173 279.1764 0001264  93.3202 266.7934 15.08832381122168,6917.904,95.438,540.643,538.894,0.0
